H1 CPF 01  gfz 2022 01 22 01  5221 tandemx   
H2 1003001  6202 36605    2022 01 22 00 59 42 2022 01 27 00 00 42   120 1 1  0 0 0
H9
10 0 59602  82782.000000  0    -509138.217   4429271.071  -5258501.095
10 0 59602  82902.000000  0    -213488.038   3738847.890  -5788667.591
10 0 59602  83022.000000  0      73173.496   2978449.242  -6217668.268
10 0 59602  83142.000000  0     344766.128   2161523.739  -6538095.018
10 0 59602  83262.000000  0     595722.154   1302572.696  -6744425.692
10 0 59602  83382.000000  0     821095.902    416894.135  -6833110.371
10 0 59602  83502.000000  0    1016657.463   -479685.680  -6802625.657
10 0 59602  83622.000000  0    1178969.326  -1371089.598  -6653497.051
10 0 59602  83742.000000  0    1305445.093  -2241269.918  -6388289.492
10 0 59602  83862.000000  0    1394390.409  -3074489.536  -6011569.126
10 0 59602  83982.000000  0    1445025.049  -3855603.173  -5529834.852
10 0 59602  84102.000000  0    1457484.723  -4570333.319  -4951415.959
10 0 59602  84222.000000  0    1432804.328  -5205532.780  -4286338.505
10 0 59602  84342.000000  0    1372881.458  -5749433.101  -3546163.106
10 0 59602  84462.000000  0    1280420.025  -6191872.483  -2743792.052
10 0 59602  84582.000000  0    1158856.493  -6524496.910  -1893249.712
10 0 59602  84702.000000  0    1012269.572  -6740930.290  -1009438.861
10 0 59602  84822.000000  0     845274.193  -6836907.857   -107876.891
10 0 59602  84942.000000  0     662903.345  -6810368.413    795582.161
10 0 59602  85062.000000  0     470480.644  -6661503.753   1685033.792
10 0 59602  85182.000000  0     273486.641  -6392763.140   2544812.556
10 0 59602  85302.000000  0      77422.329  -6008810.651   3359778.122
10 0 59602  85422.000000  0    -112327.197  -5516436.337   4115588.543
10 0 59602  85542.000000  0    -290624.814  -4924427.788   4798955.572
10 0 59602  85662.000000  0    -452705.666  -4243403.488   5397879.747
10 0 59602  85782.000000  0    -594290.632  -3485612.655   5901859.638
10 0 59602  85902.000000  0    -711687.068  -2664704.737   6302072.602
10 0 59602  86022.000000  0    -801874.433  -1795475.969   6591521.437
10 0 59602  86142.000000  0    -862573.416   -893600.093   6765149.889
10 0 59602  86262.000000  0    -892297.898     24655.748   6819926.964
10 0 59602  86382.000000  0    -890388.536    942724.950   6754896.718
10 0 59603    102.000000  0    -857026.273   1844039.879   6571193.840
10 0 59603    222.000000  0    -793226.368   2712330.167   6272024.950
10 0 59603    342.000000  0    -700813.499   3531916.436   5862616.347
10 0 59603    462.000000  0    -582378.284   4287995.698   5350127.840
10 0 59603    582.000000  0    -441215.425   4966912.450   4743533.598
10 0 59603    702.000000  0    -281245.089   5556413.368   4053471.193
10 0 59603    822.000000  0    -106917.986   6045875.765   3292057.604
10 0 59603    942.000000  0      76891.669   6426509.199   2472682.106
10 0 59603   1062.000000  0     265005.455   6691527.804   1609767.171
10 0 59603   1182.000000  0     452069.669   6836277.382    718508.430
10 0 59603   1302.000000  0     632689.193   6858322.482   -185399.273
10 0 59603   1422.000000  0     801563.534   6757489.182  -1086047.019
10 0 59603   1542.000000  0     953620.066   6535861.324  -1967600.580
10 0 59603   1662.000000  0    1084141.658   6197732.441  -2814585.904
10 0 59603   1782.000000  0    1188886.406   5749514.204  -3612166.017
10 0 59603   1902.000000  0    1264196.553   5199603.952  -4346403.384
10 0 59603   2022.000000  0    1307093.721   4558214.983  -5004502.283
10 0 59603   2142.000000  0    1315358.328   3837174.795  -5575026.087
10 0 59603   2262.000000  0    1287591.339   3049697.929  -6048087.612
10 0 59603   2382.000000  0    1223257.641   2210136.499  -6415510.309
10 0 59603   2502.000000  0    1122710.179   1333715.792  -6670957.123
10 0 59603   2622.000000  0     987195.225    436259.983  -6810030.019
10 0 59603   2742.000000  0     818838.421   -466089.970  -6830337.858
10 0 59603   2862.000000  0     620611.656  -1357161.088  -6731532.062
10 0 59603   2982.000000  0     396281.678  -2221030.271  -6515310.425
10 0 59603   3102.000000  0     150341.499  -3042300.860  -6185392.562
10 0 59603   3222.000000  0    -112076.230  -3806374.114  -5747464.109
10 0 59603   3342.000000  0    -385300.895  -4499707.355  -5209087.494
10 0 59603   3462.000000  0    -663239.677  -5110056.347  -4579583.040
10 0 59603   3582.000000  0    -939506.440  -5626698.224  -3869878.896
10 0 59603   3702.000000  0   -1207560.916  -6040629.564  -3092330.598
10 0 59603   3822.000000  0   -1460855.054  -6344734.680  -2260512.795
10 0 59603   3942.000000  0   -1692983.749  -6533920.861  -1388985.840
10 0 59603   4062.000000  0   -1897835.947  -6605215.853   -493039.752
10 0 59603   4182.000000  0   -2069742.419  -6557823.683    411578.831
10 0 59603   4302.000000  0   -2203616.718  -6393136.818   1308950.690
10 0 59603   4422.000000  0   -2295085.257  -6114704.097   2183272.995
10 0 59603   4542.000000  0   -2340602.881  -5728154.827   3019146.840
10 0 59603   4662.000000  0   -2337550.527  -5241080.852   3801856.322
10 0 59603   4782.000000  0   -2284312.862  -4662880.452   4517632.694
10 0 59603   4902.000000  0   -2180334.552  -4004569.126   5153898.743
10 0 59603   5022.000000  0   -2026154.346  -3278560.997   5699490.279
10 0 59603   5142.000000  0   -1823414.827  -2498425.322   6144848.690
10 0 59603   5262.000000  0   -1574848.130  -1678626.978   6482182.524
10 0 59603   5382.000000  0   -1284239.326   -834254.553   6705598.338
10 0 59603   5502.000000  0    -956368.544     19260.539   6811197.036
10 0 59603   5622.000000  0    -596932.686    866425.362   6797136.758
10 0 59603   5742.000000  0    -212446.428   1691965.951   6663663.861
10 0 59603   5862.000000  0     189875.829   2481102.408   6413108.894
10 0 59603   5982.000000  0     602254.745   3219813.256   6049848.024
10 0 59603   6102.000000  0    1016494.878   3895085.754   5580231.636
10 0 59603   6222.000000  0    1424145.823   4495148.844   5012479.113
10 0 59603   6342.000000  0    1816673.078   5009684.415   4356541.065
10 0 59603   6462.000000  0    2185635.360   5430011.651   3623929.451
10 0 59603   6582.000000  0    2522865.384   5749241.352   2827520.329
10 0 59603   6702.000000  0    2820648.581   5962400.014   1981327.061
10 0 59603   6822.000000  0    3071896.769   6066513.151   1100248.516
10 0 59603   6942.000000  0    3270310.278   6060648.073    199800.353
10 0 59603   7062.000000  0    3410525.809   5945916.393   -704165.734
10 0 59603   7182.000000  0    3488246.752   5725434.741  -1595749.578
10 0 59603   7302.000000  0    3500351.707   5404245.802  -2459289.802
10 0 59603   7422.000000  0    3444979.211   4989201.201  -3279645.841
10 0 59603   7542.000000  0    3321585.358   4488808.895  -4042467.555
10 0 59603   7662.000000  0    3130974.038   3913050.786  -4734445.581
10 0 59603   7782.000000  0    2875299.901   3273176.462  -5343540.056
10 0 59603   7902.000000  0    2558044.504   2581476.364  -5859183.094
10 0 59603   8022.000000  0    2183966.546   1851040.806  -6272452.418
10 0 59603   8142.000000  0    1759027.244   1095510.080  -6576214.136
10 0 59603   8262.000000  0    1290294.401    328821.170  -6765234.019
10 0 59603   8382.000000  0     785825.083   -435045.128  -6836259.586
10 0 59603   8502.000000  0     254527.702  -1182314.563  -6788069.584
10 0 59603   8622.000000  0    -293991.712  -1899661.144  -6621491.053
10 0 59603   8742.000000  0    -849598.196  -2574438.062  -6339387.648
10 0 59603   8862.000000  0   -1401810.877  -3194897.596  -5946616.588
10 0 59603   8982.000000  0   -1939995.715  -3750393.925  -5449952.987
10 0 59603   9102.000000  0   -2453566.366  -4231567.239  -4857984.880
10 0 59603   9222.000000  0   -2932191.220  -4630507.258  -4180976.650
10 0 59603   9342.000000  0   -3366001.360  -4940890.368  -3430700.547
10 0 59603   9462.000000  0   -3745794.799  -5158087.942  -2620240.051
10 0 59603   9582.000000  0   -4063233.622  -5279243.519  -1763766.695
10 0 59603   9702.000000  0   -4311028.641  -5303315.890   -876293.173
10 0 59603   9822.000000  0   -4483106.324  -5231086.484     26592.829
10 0 59603   9942.000000  0   -4574753.387  -5065130.145    929008.667
10 0 59603  10062.000000  0   -4582735.312  -4809749.163   1815065.065
10 0 59603  10182.000000  0   -4505384.498  -4470871.243   2669155.502
10 0 59603  10302.000000  0   -4342656.409  -4055915.146   3476239.202
10 0 59603  10422.000000  0   -4096152.905  -3573627.815   4222112.506
10 0 59603  10542.000000  0   -3769111.331  -3033896.344   4893663.344
10 0 59603  10662.000000  0   -3366360.217  -2447540.119   5479101.486
10 0 59603  10782.000000  0   -2894244.462  -1826090.321   5968162.617
10 0 59603  10902.000000  0   -2360521.030  -1181560.367   6352284.880
10 0 59603  11022.000000  0   -1774226.810   -526210.132   6624754.393
10 0 59603  11142.000000  0   -1145520.430    127689.451   6780815.301
10 0 59603  11262.000000  0    -485504.922    768084.484   6817745.923
10 0 59603  11382.000000  0     193967.973   1383359.355   6734903.734
10 0 59603  11502.000000  0     880510.106   1962547.155   6533736.145
10 0 59603  11622.000000  0    1561422.282   2495525.191   6217756.142
10 0 59603  11742.000000  0    2223928.064   2973191.845   5792484.648
10 0 59603  11862.000000  0    2855413.589   3387624.265   5265360.847
10 0 59603  11982.000000  0    3443670.530   3732214.004   4645618.251
10 0 59603  12102.000000  0    3977134.579   4001775.526   3944126.769
10 0 59603  12222.000000  0    4445116.397   4192628.747   3173208.845
10 0 59603  12342.000000  0    4838023.739   4302652.159   2346422.590
10 0 59603  12462.000000  0    5147561.287   4331302.901   1478321.165
10 0 59603  12582.000000  0    5366909.879   4279605.626    584192.174
10 0 59603  12702.000000  0    5490876.967   4150108.511   -320219.685
10 0 59603  12822.000000  0    5516013.874   3946807.859  -1218999.091
99
